API VERSION: 1.2
API SOURCE: NASA/JPL Horizons API



*******************************************************************************
Ephemeris / API_USER Sun Apr  5 18:55:18 2026 Pasadena, USA      / Horizons
*******************************************************************************
Target body name: Saturn (699)                    {source: sat441l}
Center body name: Sun (10)                        {source: DE441}
Center-site name: BODY CENTER
*******************************************************************************
Start time      : A.D. 2022-Jan-01 00:00:00.0000 TDB
Stop  time      : A.D. 2026-Dec-31 00:00:00.0000 TDB
Step-size       : 1440 minutes
*******************************************************************************
Center geodetic : 0.0, 0.0, 0.0                   {E-lon(deg),Lat(deg),Alt(km)}
Center cylindric: 0.0, 0.0, 0.0                   {E-lon(deg),Dxy(km),Dz(km)}
Center radii    : 695700.0, 695700.0, 695700.0 km {Equator_a, b, pole_c}
Output units    : AU-D
Calendar mode   : Mixed Julian/Gregorian
Output type     : GEOMETRIC cartesian states
Output format   : 2 (position and velocity)
Reference frame : Ecliptic of J2000.0
*******************************************************************************
            JDTDB,            Calendar Date (TDB),                      X,                      Y,                      Z,                     VX,                     VY,                     VZ,
**************************************************************************************************************************************************************************************************
$$SOE
2460336.500000000, A.D. 2024-Jan-27 00:00:00.0000,  9.042327760816885E+00, -3.581831227466548E+00, -2.975836941309769E-01,  1.740444710051241E-03,  5.181525866379278E-03, -1.594424487433701E-04,
2460337.500000000, A.D. 2024-Jan-28 00:00:00.0000,  9.044066751303546E+00, -3.576649261256480E+00, -2.977430208420567E-01,  1.737544359104764E-03,  5.182409021990980E-03, -1.592130652815652E-04,
2460338.500000000, A.D. 2024-Jan-29 00:00:00.0000,  9.045802887922186E+00, -3.571466424034847E+00, -2.979021164475921E-01,  1.734763329395293E-03,  5.183269120335388E-03, -1.589837953741735E-04,
2460339.500000000, A.D. 2024-Jan-30 00:00:00.0000,  9.047536327011464E+00, -3.566282682720722E+00, -2.980610146237411E-01,  1.732119404657474E-03,  5.184241320854134E-03, -1.588274951695997E-04,
2460340.500000000, A.D. 2024-Jan-31 00:00:00.0000,  9.049267120331798E+00, -3.561097914302699E+00, -2.982197850672382E-01,  1.729472621842282E-03,  5.185304592336858E-03, -1.587189244117339E-04,
2460341.500000000, A.D. 2024-Feb-01 00:00:00.0000,  9.050995276769287E+00, -3.555912043924437E+00, -2.983784683303388E-01,  1.726835966804063E-03,  5.186447009148673E-03, -1.586526153200969E-04,
2460342.500000000, A.D. 2024-Feb-02 00:00:00.0000,  9.052720806722606E+00, -3.550724993645757E+00, -2.985371055975078E-01,  1.724222949683234E-03,  5.187684877714498E-03, -1.586383864799581E-04,
2460343.500000000, A.D. 2024-Feb-03 00:00:00.0000,  9.054443674980620E+00, -3.545536626480928E+00, -2.986957652991797E-01,  1.721484062860893E-03,  5.189054690104670E-03, -1.586807455458326E-04,
2460344.500000000, A.D. 2024-Feb-04 00:00:00.0000,  9.056163744692411E+00, -3.540346883516057E+00, -2.988544649039947E-01,  1.718644024643190E-03,  5.190439043240977E-03, -1.587216807022424E-04,
2460345.500000000, A.D. 2024-Feb-05 00:00:00.0000,  9.057880911898677E+00, -3.535155730556546E+00, -2.990132130176371E-01,  1.715654871888866E-03,  5.191856914736348E-03, -1.587658249513702E-04,
2460346.500000000, A.D. 2024-Feb-06 00:00:00.0000,  9.059595028910175E+00, -3.529963206267001E+00, -2.991719754391678E-01,  1.712575497713595E-03,  5.193183146367266E-03, -1.587543967339233E-04,
2460347.500000000, A.D. 2024-Feb-07 00:00:00.0000,  9.061306044856918E+00, -3.524769380885319E+00, -2.993307114233250E-01,  1.709453553810776E-03,  5.194454885134459E-03, -1.587107538769941E-04,
2460348.500000000, A.D. 2024-Feb-08 00:00:00.0000,  9.063013925412566E+00, -3.519574301091377E+00, -2.994893943649259E-01,  1.706288325272054E-03,  5.195699231296082E-03, -1.586506738574088E-04,
2460349.500000000, A.D. 2024-Feb-09 00:00:00.0000,  9.064718587899039E+00, -3.514378024366295E+00, -2.996479878246801E-01,  1.703038450514614E-03,  5.196820991285996E-03, -1.585193107805087E-04,
2460350.500000000, A.D. 2024-Feb-10 00:00:00.0000,  9.066420037670690E+00, -3.509180697878978E+00, -2.998064169613919E-01,  1.699873017617561E-03,  5.197829036572737E-03, -1.583387541586197E-04,
2460351.500000000, A.D. 2024-Feb-11 00:00:00.0000,  9.068118334604602E+00, -3.503982393235459E+00, -2.999646514647639E-01,  1.696739334184008E-03,  5.198755254213231E-03, -1.581193137011854E-04,
2460352.500000000, A.D. 2024-Feb-12 00:00:00.0000,  9.069813567990282E+00, -3.498783202566756E+00, -3.001226534245510E-01,  1.693744543088795E-03,  5.199627859596718E-03, -1.578873583358572E-04,
2460353.500000000, A.D. 2024-Feb-13 00:00:00.0000,  9.071505853309892E+00, -3.493583140129621E+00, -3.002804279527953E-01,  1.690843686496865E-03,  5.200499409927560E-03, -1.576650817867801E-04,
2460354.500000000, A.D. 2024-Feb-14 00:00:00.0000,  9.073195278144254E+00, -3.488382197773931E+00, -3.004379894400334E-01,  1.688016247913231E-03,  5.201385428563248E-03, -1.574589269823176E-04,
2460355.500000000, A.D. 2024-Feb-15 00:00:00.0000,  9.074881927029836E+00, -3.483180377992737E+00, -3.005953452207544E-01,  1.685319145073970E-03,  5.202263130326915E-03, -1.572612555988605E-04,
2460356.500000000, A.D. 2024-Feb-16 00:00:00.0000,  9.076565955141950E+00, -3.477977608434170E+00, -3.007525488095221E-01,  1.682725961516486E-03,  5.203305939662480E-03, -1.571603502145227E-04,
2460357.500000000, A.D. 2024-Feb-17 00:00:00.0000,  9.078247368426309E+00, -3.472773742092692E+00, -3.009096774821388E-01,  1.680104297550070E-03,  5.204444781646111E-03, -1.571070426024126E-04,
2460358.500000000, A.D. 2024-Feb-18 00:00:00.0000,  9.079926146928834E+00, -3.467568674794702E+00, -3.010667843108358E-01,  1.677433428580927E-03,  5.205706813884715E-03, -1.571134351271746E-04,
2460359.500000000, A.D. 2024-Feb-19 00:00:00.0000,  9.081602199785548E+00, -3.462362310753723E+00, -3.012239102610336E-01,  1.674656302329016E-03,  5.207027330026620E-03, -1.571402469550869E-04,
2460360.500000000, A.D. 2024-Feb-20 00:00:00.0000,  9.083275425540725E+00, -3.457154610403165E+00, -3.013810664600106E-01,  1.671776307498670E-03,  5.208370166868357E-03, -1.571684859785140E-04,
2460361.500000000, A.D. 2024-Feb-21 00:00:00.0000,  9.084945744082807E+00, -3.451945570729989E+00, -3.015382466853194E-01,  1.668849261211585E-03,  5.209726061945347E-03, -1.571999461033680E-04,
2460362.500000000, A.D. 2024-Feb-22 00:00:00.0000,  9.086613053652769E+00, -3.446735147776030E+00, -3.016954651574619E-01,  1.665737711667253E-03,  5.211097219811362E-03, -1.572220906274551E-04,
2460363.500000000, A.D. 2024-Feb-23 00:00:00.0000,  9.088277203378805E+00, -3.441523420864121E+00, -3.018526666976070E-01,  1.662560180145638E-03,  5.212343012010913E-03, -1.571739722000559E-04,
2460364.500000000, A.D. 2024-Feb-24 00:00:00.0000,  9.089938161861330E+00, -3.436310483008359E+00, -3.020098009074068E-01,  1.659349359388980E-03,  5.213514925888299E-03, -1.570845686152860E-04,
2460365.500000000, A.D. 2024-Feb-25 00:00:00.0000,  9.091595908386626E+00, -3.431096425752737E+00, -3.021668190624028E-01,  1.656149640681851E-03,  5.214589429601625E-03, -1.569472593875725E-04,
2460366.500000000, A.D. 2024-Feb-26 00:00:00.0000,  9.093250461652223E+00, -3.425881331379716E+00, -3.023236815045028E-01,  1.652970008102676E-03,  5.215579292389179E-03, -1.567687738921101E-04,
2460367.500000000, A.D. 2024-Feb-27 00:00:00.0000,  9.094901872985144E+00, -3.420665275677551E+00, -3.024803554603962E-01,  1.649848426183900E-03,  5.216527657568688E-03, -1.565766147679681E-04,
2460368.500000000, A.D. 2024-Feb-28 00:00:00.0000,  9.096550164910584E+00, -3.415448321521499E+00, -3.026368117483901E-01,  1.646765071337266E-03,  5.217355652124964E-03, -1.563261009523826E-04,
2460369.500000000, A.D. 2024-Feb-29 00:00:00.0000,  9.098195476220154E+00, -3.410230573430802E+00, -3.027930106111206E-01,  1.643885015970456E-03,  5.218154588134452E-03, -1.560817062732606E-04,
2460370.500000000, A.D. 2024-Mar-01 00:00:00.0000,  9.099837958615261E+00, -3.405011993272342E+00, -3.029489875341476E-01,  1.641097110129897E-03,  5.219008967691570E-03, -1.558758813752944E-04,
2460371.500000000, A.D. 2024-Mar-02 00:00:00.0000,  9.101477703535219E+00, -3.399792528878062E+00, -3.031047799295025E-01,  1.638396859661912E-03,  5.219936179228866E-03, -1.557178148768922E-04,
2460372.500000000, A.D. 2024-Mar-03 00:00:00.0000,  9.103114770553804E+00, -3.394572103123661E+00, -3.032604342232398E-01,  1.635751205108129E-03,  5.220935860571648E-03, -1.556031079883375E-04,
2460373.500000000, A.D. 2024-Mar-04 00:00:00.0000,  9.104749198502242E+00, -3.389350612129049E+00, -3.034160089533217E-01,  1.633092714306350E-03,  5.222058211548168E-03, -1.555512566738345E-04,
2460374.500000000, A.D. 2024-Mar-05 00:00:00.0000,  9.106380956162825E+00, -3.384127972285608E+00, -3.035715442317441E-01,  1.630429373804344E-03,  5.223240290257582E-03, -1.555299971253344E-04,
2460375.500000000, A.D. 2024-Mar-06 00:00:00.0000,  9.108010033532661E+00, -3.378904071126979E+00, -3.037270982616801E-01,  1.627685639432453E-03,  5.224582618045094E-03, -1.555848311601108E-04,
2460376.500000000, A.D. 2024-Mar-07 00:00:00.0000,  9.109636268805241E+00, -3.373678812505437E+00, -3.038827056589127E-01,  1.624769721501970E-03,  5.225931544929387E-03, -1.556271222554720E-04,
2460377.500000000, A.D. 2024-Mar-08 00:00:00.0000,  9.111259534828674E+00, -3.368452213183594E+00, -3.040383461279696E-01,  1.621745762751264E-03,  5.227255350888328E-03, -1.556459607000577E-04,
